BEIDOU 3 (C01)          
1 36287U 10001A   22273.57273772 -.00000279  00000+0  00000+0 0  9991
2 36287   1.6917  47.3278 0000497 346.9003 321.6926  1.00268379 46564
BEIDOU 5 (C06)          
1 36828U 10036A   22273.65488648 -.00000121  00000+0  00000+0 0  9995
2 36828  54.1979 175.2683 0030218 187.2532 350.4879  1.00268384 44633
BEIDOU 6 (C04)          
1 37210U 10057A   22273.63130029 -.00000111  00000+0  00000+0 0  9998
2 37210   0.7448  38.7940 0007118 149.4123 208.3747  1.00270065 43694
BEIDOU 7 (C07)          
1 37256U 10068A   22273.24792322 -.00000178  00000+0  00000+0 0  9990
2 37256  50.0251 288.3911 0023976 205.1202  72.9194  1.00274065 43193
BEIDOU 8 (C08)          
1 37384U 11013A   22273.32549212 -.00000169  00000+0  00000+0 0  9990
2 37384  60.4457  53.2234 0024419 178.3746   2.9902  1.00279890 42079
BEIDOU 9 (C09)          
1 37763U 11038A   22273.60372375 -.00000069  00000+0  00000+0 0  9992
2 37763  54.4793 177.7719 0098940 227.7621 275.0263  1.00259477 41056
BEIDOU 10 (C10)         
1 37948U 11073A   22272.71328289 -.00000132  00000+0  00000+0 0  9993
2 37948  50.1453 288.0435 0086747 219.8924 213.2856  1.00270522 39804
BEIDOU 11 (C05)         
1 38091U 12008A   22273.55643125  .00000059  00000+0  00000+0 0  9991
2 38091   1.7955  69.8537 0010093 340.1117 218.3438  1.00270156 38886
BEIDOU 12 (C11)         
1 38250U 12018A   22273.38899883 -.00000078  00000+0  00000+0 0  9996
2 38250  56.6611 350.0956 0023458 250.4592 114.8873  1.86234422 71048
BEIDOU 13 (C12)         
1 38251U 12018B   22273.30748468 -.00000078  00000+0  00000+0 0  9991
2 38251  56.5771 349.4149 0014258 250.2360 104.6120  1.86234186 71038
BEIDOU 15 (C14)         
1 38775U 12050B   22273.29343497  .00000040  00000+0  00000+0 0  9997
2 38775  55.4604 108.1564 0011815 333.8830 207.4208  1.86231473 68412
BEIDOU 16 (C02)         
1 38953U 12059A   22273.56148888 -.00000175  00000+0  00000+0 0  9991
2 38953   1.1788  81.2265 0023893 295.6311 278.7258  1.00270416 36459
BEIDOU 17 (C31)         
1 40549U 15019A   22273.56410488 -.00000159  00000+0  00000+0 0  9994
2 40549  51.7043 311.5348 0038601 198.2997 158.4070  1.00274622 27482
BEIDOU 18 (C57)         
1 40748U 15037A   22272.39162079 -.00000075  00000+0  00000+0 0  9992
2 40748  55.8270 348.2491 0000937  22.3602 347.7557  1.86233614 48854
BEIDOU 19 (C58)         
1 40749U 15037B   22272.97931340 -.00000077  00000+0  00000+0 0  9994
2 40749  55.8301 348.2190 0003255 295.9548 242.3637  1.86233062 48855
BEIDOU 20 (C18)         
1 40938U 15053A   22273.28099844 -.00000112  00000+0  00000+0 0  9991
2 40938  51.3420 274.6650 0045887 200.5207  91.3620  1.00268553 25759
BEIDOU IGSO-6 (C13)     
1 41434U 16021A   22273.34863280 -.00000137  00000+0  00000+0 0  9996
2 41434  58.2555  51.7501 0045768 215.1699 322.1903  1.00262925 23888
BEIDOU-2 G7 (C03)       
1 41586U 16037A   22273.42327630 -.00000352  00000+0  00000+0 0  9993
2 41586   1.6036  68.1175 0008169 355.1707 208.8167  1.00273755 23199
BEIDOU-3 M1 (C19)       
1 43001U 17069A   22273.10820712  .00000041  00000+0  00000+0 0  9991
2 43001  55.6152 108.1771 0007813 296.7102 276.7686  1.86231757 33340
BEIDOU-3 M2 (C20)       
1 43002U 17069B   22272.67869447  .00000043  00000+0  00000+0 0  9993
2 43002  55.6128 108.2273 0006297 327.0897   1.2920  1.86231336 33329
BEIDOU-3 M3 (C27)       
1 43107U 18003A   22273.55107836 -.00000080  00000+0  00000+0 0  9995
2 43107  55.2784 349.0807 0003819  71.4586 288.1031  1.86232587 32102
BEIDOU-3 M4 (C28)       
1 43108U 18003B   22273.48374750 -.00000080  00000+0  00000+0 0  9999
2 43108  55.2720 349.0714 0003630 237.1551 120.5615  1.86231006 32106
BEIDOU-3 M5 (C21)       
1 43207U 18018A   22273.39465360  .00000040  00000+0  00000+0 0  9998
2 43207  55.5732 108.2777 0004611   6.1599 353.9153  1.86231703 31496
BEIDOU-3 M6 (C22)       
1 43208U 18018B   22273.46134043  .00000040  00000+0  00000+0 0  9998
2 43208  55.5727 108.2805 0005614 312.1368  47.8839  1.86231640 31491
BEIDOU-3 M7 (C29)       
1 43245U 18029A   22273.27817726 -.00000077  00000+0  00000+0 0  9997
2 43245  55.1882 346.8513 0001060 201.0545 246.0506  1.86232798 30645
BEIDOU-3 M8 (C30)       
1 43246U 18029B   22273.57100273 -.00000078  00000+0  10000-3 0  9999
2 43246  55.1845 346.8705 0002846 355.6433 334.4087  1.86232994 30636
BEIDOU IGSO-7 (C16)     
1 43539U 18057A   22273.65817810 -.00000128  00000+0  00000+0 0  9997
2 43539  55.0917 174.8015 0052134 227.7765 318.1998  1.00278577 15563
BEIDOU-3 M9 (C23)       
1 43581U 18062A   22272.49864953  .00000044  00000+0  00000+0 0  9997
2 43581  54.2513 228.5235 0005725 277.5986 264.7736  1.86231922 28361
BEIDOU-3 M10 (C24)      
1 43582U 18062B   22273.43066898  .00000045  00000+0  00000+0 0  9996
2 43582  54.2508 228.4805 0005274 343.7819 195.3786  1.86232389 28382
BEIDOU-3 M11 (C25)      
1 43602U 18067A   22272.84493613  .00000045  00000+0  00000+0 0  9997
2 43602  54.3343 227.1252 0007066   3.1285 184.4886  1.86231584 27868
BEIDOU-3 M12 (C26)      
1 43603U 18067B   22273.49210185  .00000044  00000+0  00000+0 0  9990
2 43603  54.3308 227.0697 0004351 347.2253 184.6444  1.86231571 27894
BEIDOU-3 M13 (C32)      
1 43622U 18072A   22273.51779096  .00000040  00000+0  00000+0 0  9997
2 43622  55.5400 107.8253 0004515 291.2165 286.8930  1.86231798 27409
BEIDOU-3 M14 (C33)      
1 43623U 18072B   22273.33135392  .00000040  00000+0  00000+0 0  9993
2 43623  55.5416 107.8234 0002979 339.0746 204.2786  1.86231833 27407
BEIDOU-3 M15 (C34)      
1 43647U 18078A   22273.21053316 -.00000077  00000+0  10000-3 0  9993
2 43647  55.0836 347.0030 0005067   4.2901 353.7291  1.86233023 26909
BEIDOU-3 M16 (C35)      
1 43648U 18078B   22273.36156049 -.00000078  00000+0  00000+0 0  9993
2 43648  55.0791 347.0037 0002973  18.5204 348.3340  1.86232327 26938
BEIDOU-3 G1 (C59)       
1 43683U 18085A   22273.55118604 -.00000277  00000+0  00000+0 0  9997
2 43683   1.0095 150.1276 0004334  46.6862 150.9423  1.00268119 14466
BEIDOU-3 M17 (C36)      
1 43706U 18093A   22272.96491981  .00000045  00000+0  00000+0 0  9990
2 43706  54.3330 228.4009 0010471 279.4151  80.4462  1.86231769 26282
BEIDOU-3 M18 (C37)      
1 43707U 18093B   22273.57898535  .00000045  00000+0  00000+0 0  9995
2 43707  54.3337 228.3706 0009231 299.7288 203.1555  1.86232312 26283
BEIDOU-3 IGSO-1 (C38)   
1 44204U 19023A   22273.28183733 -.00000202  00000+0  00000+0 0  9993
2 44204  56.7153  51.8485 0023735 188.7569 349.6196  1.00278222 12766
BEIDOU-2 G8             
1 44231U 19027A   22273.61660834 -.00000245  00000+0  00000+0 0  9993
2 44231   1.1067  79.0869 0006103 118.1021 178.7038  1.00271793 12472
BEIDOU-3 IGSO-2 (C39)   
1 44337U 19035A   22273.66154721 -.00000128  00000+0  00000+0 0  9997
2 44337  55.1295 170.7892 0025658 192.0204   4.5243  1.00272326 12103
BEIDOU-3 M23 (C45)      
1 44542U 19061A   22272.90119429  .00000046  00000+0  00000+0 0  9994
2 44542  54.5596 228.5655 0008892 334.0381  25.8965  1.86231464 20537
BEIDOU-3 M24 (C46)      
1 44543U 19061B   22273.31230009  .00000046  00000+0  00000+0 0  9999
2 44543  54.5586 228.5205 0006467 315.1170 231.8883  1.86231848 20534
BEIDOU-3 IGSO-3         
1 44709U 19073A   22273.61018786 -.00000157  00000+0  10000-3 0  9994
2 44709  57.0940 295.2920 0027503 182.5142 231.3455  1.00277218 10855
BEIDOU-3 M21            
1 44793U 19078A   22273.29996895 -.00000078  00000+0  10000-3 0  9994
2 44793  54.9318 347.0082 0005077  14.4644 357.2443  1.86232368 19406
BEIDOU-3 M22            
1 44794U 19078B   22272.33243834 -.00000075  00000+0  00000+0 0  9999
2 44794  54.9063 347.0319 0002870   4.1627 350.7033  1.86232822 19376
BEIDOU-3 M19            
1 44864U 19090A   22272.32783446  .00000044  00000+0  00000+0 0  9993
2 44864  55.4743 108.0701 0015008 270.3202 275.8469  1.86231996 18963
BEIDOU-3 M20            
1 44865U 19090B   22273.52756794  .00000040  00000+0  00000+0 0  9999
2 44865  55.4768 108.0620 0013142 285.7516  74.6306  1.86231950 18961
BEIDOU-3 G2             
1 45344U 20017A   22273.48902538 -.00000140  00000+0  00000+0 0  9999
2 45344   2.0154 357.3838 0004035 156.7160 111.2260  1.00271238  9667
BEIDOU-3 G3             
1 45807U 20040A   22273.56670389 -.00000353  00000+0  00000+0 0  9990
2 45807   1.2135 306.8027 0008324 335.9644  41.1156  1.00273602  8484
